ASTRA 2G                
1 40364U 14089A   26197.81780765  .00000139  00000+0  00000+0 0  9997
2 40364   0.0543  31.2833 0004509  44.2501 181.7024  1.00269158 42264
FENGYUN 2G              
1 40367U 14090A   26197.83497266 -.00000315  00000+0  00000+0 0  9992
2 40367   5.7114  72.4541 0004190 172.9611  89.1999  1.00280173 42298
MUOS-3                  
1 40374U 15002A   26197.84003088 -.00000140  00000+0  00000+0 0  9996
2 40374   4.5762  43.6309 0053542 176.9651   0.9532  1.00273445 41889
INMARSAT 5-F2           
1 40384U 15005A   26197.50114104 -.00000296  00000+0  00000+0 0  9997
2 40384   0.0189  40.2027 0000526  72.1539 307.3765  1.00269912 41280
ABS-3A                  
1 40424U 15010A   26197.82892022 -.00000037  00000+0  00000+0 0  9998
2 40424   0.0112  43.0239 0001600  21.5744 165.4977  1.00270458 41675
EUTELSAT 115 WEST B     
1 40425U 15010B   26197.60356998 -.00000035  00000+0  00000+0 0  9990
2 40425   0.0097 194.0596 0000363 270.3911 292.3521  1.00271664 41671
EXPRESS-AM7             
1 40505U 15012A   26197.81572586  .00000140  00000+0  00000+0 0  9993
2 40505   0.0162  54.7936 0002793  67.4781 146.0018  1.00271265 41305
BEIDOU-3S IGSO-1S       
1 40549U 15019A   26183.80025122 -.00000190  00000+0  00000+0 0  9997
2 40549  49.1798 295.2769 0076860 219.1125 144.2493  1.00680073 41232
THOR 7                  
1 40613U 15022A   26197.82892022 -.00000018  00000+0  00000+0 0  9990
2 40613   0.0347 245.5686 0002303 231.1665 115.6785  1.00273705 41113
TURKMENALEM52E/MONACOSAT
1 40617U 15023A   26197.81017090  .00000093  00000+0  00000+0 0  9990
2 40617   0.0355  85.1030 0002686  37.9477 155.2454  1.00271976 41148
DIRECTV 15              
1 40663U 15026A   26197.60599666 -.00000113  00000+0  00000+0 0  9999
2 40663   0.0230  76.6558 0000264 264.8032  68.2365  1.00268719 40750
SKY MEXICO-1            
1 40664U 15026B   26197.82457248 -.00000245  00000+0  00000+0 0  9999
2 40664   0.0129  61.0331 0002296  72.1021  19.5537  1.00273057 40751
METEOSAT-11 (MSG-4)     
1 40732U 15034A   26197.84205740  .00000050  00000+0  00000+0 0  9997
2 40732   3.2729  70.9200 0002136 354.6087 181.5323  1.00272374  7516
STAR ONE C4             
1 40733U 15034B   26197.25604961 -.00000275  00000+0  00000+0 0  9991
2 40733   0.0315 327.3177 0001328 131.4588 217.4651  1.00268947 40302
WGS F7 (USA 263)        
1 40746U 15036A   26197.58308424  .00000007  00000+0  00000+0 0  9990
2 40746   0.0166  44.3739 0000185 112.6781 162.2646  1.00272243 40165
INTELSAT 34 (IS-34)     
1 40874U 15039A   26197.82920949 -.00000296  00000+0  00000+0 0  9995
2 40874   0.0105  25.3018 0000392 349.5333 162.8302  1.00269329 39932
EUTELSAT 8 WEST B       
1 40875U 15039B   26197.83859072 -.00000076  00000+0  00000+0 0  9991
2 40875   0.0634 352.1499 0003776 118.0827 118.3287  1.00271903 39951
GSAT-6                  
1 40880U 15041A   26197.77303961 -.00000172  00000+0  00000+0 0  9991
2 40880   1.9929  82.2223 0002990  30.1804 182.9984  1.00272975 39890
INMARSAT 5-F3           
1 40882U 15042A   26197.57753205  .00000039  00000+0  00000+0 0  9993
2 40882   0.0185  45.4787 0000543 136.4673 139.9538  1.00270763 39865
MUOS-4                  
1 40887U 15044A   26197.78636177 -.00000104  00000+0  00000+0 0  9995
2 40887   4.3845  42.4043 0056507   3.5258 246.7526  1.00271415 39854
TJS-1                   
1 40892U 15046A   26197.79961236 -.00000167  00000+0  00000+0 0  9990
2 40892   0.3978  84.7473 0005088  19.6820 273.0822  1.00271354 39865
EXPRESS-AM8             
1 40895U 15048A   26197.83746404 -.00000122  00000+0  00000+0 0  9999
2 40895   0.0185 310.2536 0000244  63.7336 208.1512  1.00271461 39643
BEIDOU-3S IGSO-2S       
1 40938U 15053A   26197.14569112 -.00000096  00000+0  00000+0 0  9996
2 40938  49.1773 258.4358 0066263 193.1701 348.1230  1.00252633 39642
SKY MUSTER 1 (NBN1A)    
1 40940U 15054A   26197.79666567  .00000000  00000+0  00000+0 0  9997
2 40940   0.0150  32.6076 0001592  86.3105 242.7542  1.00270062 39555
ARSAT 2                 
1 40941U 15054B   26197.53903057 -.00000235  00000+0  00000+0 0  9999
2 40941   0.0594 269.6574 0001892 198.5049 299.2438  1.00269777 39595
MORELOS 3               
1 40946U 15056A   26197.60391663 -.00000054  00000+0  00000+0 0  9997
2 40946   3.2113  15.8153 0000437 138.6338 244.3069  1.00270629 39584
APSTAR-9                
1 40982U 15059A   26197.86833843 -.00000276  00000+0  00000+0 0  9995
2 40982   0.0284  52.8287 0003120 133.9117 202.5694  1.00271398 39418
TURKSAT 4B              
1 40984U 15060A   26197.81017090  .00000104  00000+0  00000+0 0  9991
2 40984   0.0536 253.4731 0002245 226.9215 155.9006  1.00276280 39392
ZHONGXING-2C            
1 41021U 15063A   26197.62663899 -.00000334  00000+0  00000+0 0  9996
2 41021   0.3477  88.5449 0008309 100.7667  74.1807  1.00270399 39275
GSAT-15                 
1 41028U 15065A   26197.87976218 -.00000268  00000+0  00000+0 0  9990
2 41028   0.1136 263.9593 0003460 174.5124 266.4447  1.00272698 39091
BADR-7 (ARABSAT-6B)     
1 41029U 15065B   26197.56017734  .00000000  00000+0  00000+0 0  9999
2 41029   0.0146 233.9690 0004611 331.2896 316.8146  1.00267571 39061
LAOSAT 1                
1 41034U 15067A   26197.79432566  .00000000  00000+0  00000+0 0  9996
2 41034   0.0148 262.4135 0002245 164.6617 281.9832  1.00264125 39156
