OBJECT_NAME,OBJECT_ID,EPOCH,MEAN_MOTION,ECCENTRICITY,INCLINATION,RA_OF_ASC_NODE,ARG_OF_PERICENTER,MEAN_ANOMALY,EPHEMERIS_TYPE,CLASSIFICATION_TYPE,NORAD_CAT_ID,ELEMENT_SET_NO,REV_AT_EPOCH,BSTAR,MEAN_MOTION_DOT,MEAN_MOTION_DDOT
ASTRA 2G,2014-089A,2026-07-16T19:37:38.580960,1.00269158,.0004509,0.0543,31.2833,44.2501,181.7024,0,U,40364,999,4226,0,.139E-5,0
FENGYUN 2G,2014-090A,2026-07-16T20:02:21.637824,1.00280173,.000419,5.7114,72.4541,172.9611,89.1999,0,U,40367,999,4229,0,-.315E-5,0
MUOS-3,2015-002A,2026-07-16T20:09:38.668032,1.00273445,.0053542,4.5762,43.6309,176.9651,0.9532,0,U,40374,999,4188,0,-.14E-5,0
INMARSAT 5-F2,2015-005A,2026-07-16T12:01:38.585856,1.00269912,.0000526,0.0189,40.2027,72.1539,307.3765,0,U,40384,999,4128,0,-.296E-5,0
ABS-3A,2015-010A,2026-07-16T19:53:38.707008,1.00270458,.00016,0.0112,43.0239,21.5744,165.4977,0,U,40424,999,4167,0,-.37E-6,0
EUTELSAT 115 WEST B,2015-010B,2026-07-16T14:29:08.446272,1.00271664,.0000363,0.0097,194.0596,270.3911,292.3521,0,U,40425,999,4167,0,-.35E-6,0
EXPRESS-AM7,2015-012A,2026-07-16T19:34:38.714304,1.00271265,.0002793,0.0162,54.7936,67.4781,146.0018,0,U,40505,999,4130,0,.14E-5,0
BEIDOU-3S IGSO-1S,2015-019A,2026-07-02T19:12:21.705408,1.00680073,.00768606,49.1798,295.2769,219.1125,144.2493,0,U,40549,999,4123,0,-.19E-5,0
THOR 7,2015-022A,2026-07-16T19:53:38.707008,1.00273705,.0002303,0.0347,245.5686,231.1665,115.6785,0,U,40613,999,4111,0,-.18E-6,0
TURKMENALEM52E/MONACOSAT,2015-023A,2026-07-16T19:26:38.765760,1.00271976,.0002686,0.0355,85.1030,37.9477,155.2454,0,U,40617,999,4114,0,.93E-6,0
DIRECTV 15,2015-026A,2026-07-16T14:32:38.111424,1.00268719,.0000264,0.0230,76.6558,264.8032,68.2365,0,U,40663,999,4075,0,-.113E-5,0
SKY MEXICO-1,2015-026B,2026-07-16T19:47:23.062272,1.00273057,.0002296,0.0129,61.0331,72.1021,19.5537,0,U,40664,999,4075,0,-.245E-5,0
METEOSAT-11 (MSG-4),2015-034A,2026-07-16T20:12:33.759360,1.00272374,.0002136,3.2729,70.9200,354.6087,181.5323,0,U,40732,999,751,0,.5E-6,0
STAR ONE C4,2015-034B,2026-07-16T06:08:42.686304,1.00268947,.0001328,0.0315,327.3177,131.4588,217.4651,0,U,40733,999,4030,0,-.275E-5,0
WGS F7 (USA 263),2015-036A,2026-07-16T13:59:38.478336,1.00272243,.0000185,0.0166,44.3739,112.6781,162.2646,0,U,40746,999,4016,0,.7E-7,0
INTELSAT 34 (IS-34),2015-039A,2026-07-16T19:54:03.699936,1.00269329,.0000392,0.0105,25.3018,349.5333,162.8302,0,U,40874,999,3993,0,-.296E-5,0
EUTELSAT 8 WEST B,2015-039B,2026-07-16T20:07:34.238208,1.00271903,.0003776,0.0634,352.1499,118.0827,118.3287,0,U,40875,999,3995,0,-.76E-6,0
GSAT-6,2015-041A,2026-07-16T18:33:10.622304,1.00272975,.000299,1.9929,82.2223,30.1804,182.9984,0,U,40880,999,3989,0,-.172E-5,0
INMARSAT 5-F3,2015-042A,2026-07-16T13:51:38.769120,1.00270763,.0000543,0.0185,45.4787,136.4673,139.9538,0,U,40882,999,3986,0,.39E-6,0
MUOS-4,2015-044A,2026-07-16T18:52:21.656928,1.00271415,.0056507,4.3845,42.4043,3.5258,246.7526,0,U,40887,999,3985,0,-.104E-5,0
TJS-1,2015-046A,2026-07-16T19:11:26.507904,1.00271354,.0005088,0.3978,84.7473,19.6820,273.0822,0,U,40892,999,3986,0,-.167E-5,0
EXPRESS-AM8,2015-048A,2026-07-16T20:05:56.893056,1.00271461,.0000244,0.0185,310.2536,63.7336,208.1512,0,U,40895,999,3964,0,-.122E-5,0
BEIDOU-3S IGSO-2S,2015-053A,2026-07-16T03:29:47.712768,1.00252633,.00662631,49.1773,258.4358,193.1701,348.1230,0,U,40938,999,3964,0,-.96E-6,0
SKY MUSTER 1 (NBN1A),2015-054A,2026-07-16T19:07:11.913888,1.00270062,.0001592,0.0150,32.6076,86.3105,242.7542,0,U,40940,999,3955,0,0,0
ARSAT 2,2015-054B,2026-07-16T12:56:12.241248,1.00269777,.0001892,0.0594,269.6574,198.5049,299.2438,0,U,40941,999,3959,0,-.235E-5,0
MORELOS 3,2015-056A,2026-07-16T14:29:38.396832,1.00270629,.0000437,3.2113,15.8153,138.6338,244.3069,0,U,40946,999,3958,0,-.54E-6,0
APSTAR-9,2015-059A,2026-07-16T20:50:24.440352,1.00271398,.000312,0.0284,52.8287,133.9117,202.5694,0,U,40982,999,3941,0,-.276E-5,0
TURKSAT 4B,2015-060A,2026-07-16T19:26:38.765760,1.00276280,.0002245,0.0536,253.4731,226.9215,155.9006,0,U,40984,999,3939,0,.104E-5,0
ZHONGXING-2C,2015-063A,2026-07-16T15:02:21.608736,1.00270399,.0008309,0.3477,88.5449,100.7667,74.1807,0,U,41021,999,3927,0,-.334E-5,0
GSAT-15,2015-065A,2026-07-16T21:06:51.452352,1.00272698,.000346,0.1136,263.9593,174.5124,266.4447,0,U,41028,999,3909,0,-.268E-5,0
BADR-7 (ARABSAT-6B),2015-065B,2026-07-16T13:26:39.322176,1.00267571,.0004611,0.0146,233.9690,331.2896,316.8146,0,U,41029,999,3906,0,0,0
LAOSAT 1,2015-067A,2026-07-16T19:03:49.737024,1.00264125,.0002245,0.0148,262.4135,164.6617,281.9832,0,U,41034,999,3915,0,0,0
